{
  "type": "FeatureCollection",
  "features": [
    {
      "type": "Feature",
      "properties": {
        "norad_id": 31498,
        "name": "FENGYUN 1C DEB",
        "group": "fengyun-1c-debris",
        "lat": 23.70693270586752,
        "lon": 154.4296333343445,
        "alt_km": 866.1501735474076,
        "timestamp": "2025-12-26T19:22:39.189549+00:00",
        "meta_object_name": "FENGYUN 1C DEB",
        "meta_object_id": "1999-025BWM",
        "meta_epoch": "2025-12-20T21:23:31.452864",
        "meta_mean_motion": 13.77022887,
        "meta_eccentricity": 0.0219158,
        "meta_inclination": 98.4859,
        "meta_ra_of_asc_node": 325.3849,
        "meta_arg_of_pericenter": 122.8448,
        "meta_mean_anomaly": 239.4012,
        "meta_ephemeris_type": 0,
        "meta_classification_type": "U",
        "meta_norad_cat_id": 31498,
        "meta_element_set_no": 999,
        "meta_rev_at_epoch": 92846,
        "meta_bstar": 0.0012225,
        "meta_mean_motion_dot": 1.406e-05,
        "meta_mean_motion_ddot": 0,
        "tle_line1": "1 31498U 99025BWM 25354.89133626  .00001406  00000+0  12225-2 0  9991",
        "tle_line2": "2 31498  98.4859 325.3849 0219158 122.8448 239.4012 13.77022887928464"
      },
      "geometry": {
        "type": "Point",
        "coordinates": [
          154.4296333343445,
          23.70693270586752
        ]
      }
    },
    {
      "type": "Feature",
      "properties": {
        "norad_id": 31503,
        "name": "FENGYUN 1C DEB",
        "group": "fengyun-1c-debris",
        "lat": -37.23121728572375,
        "lon": 41.16842975237496,
        "alt_km": 810.8752209391532,
        "timestamp": "2025-12-26T19:22:39.189559+00:00",
        "meta_object_name": "FENGYUN 1C DEB",
        "meta_object_id": "1999-025BWS",
        "meta_epoch": "2025-12-23T21:09:21.265632",
        "meta_mean_motion": 14.22635113,
        "meta_eccentricity": 0.0048906,
        "meta_inclination": 100.0985,
        "meta_ra_of_asc_node": 225.603,
        "meta_arg_of_pericenter": 155.2657,
        "meta_mean_anomaly": 205.0876,
        "meta_ephemeris_type": 0,
        "meta_classification_type": "U",
        "meta_norad_cat_id": 31503,
        "meta_element_set_no": 999,
        "meta_rev_at_epoch": 64405,
        "meta_bstar": 0.00094914,
        "meta_mean_motion_dot": 2.094e-05,
        "meta_mean_motion_ddot": 0,
        "tle_line1": "1 31503U 99025BWS 25357.88149613  .00002094  00000+0  94914-3 0  9993",
        "tle_line2": "2 31503 100.0985 225.6030 0048906 155.2657 205.0876 14.22635113644058"
      },
      "geometry": {
        "type": "Point",
        "coordinates": [
          41.16842975237496,
          -37.23121728572375
        ]
      }
    },
    {
      "type": "Feature",
      "properties": {
        "norad_id": 31507,
        "name": "FENGYUN 1C DEB",
        "group": "fengyun-1c-debris",
        "lat": -14.760565790951357,
        "lon": 34.89510836059304,
        "alt_km": 668.9536075799233,
        "timestamp": "2025-12-26T19:22:39.189569+00:00",
        "meta_object_name": "FENGYUN 1C DEB",
        "meta_object_id": "1999-025BWW",
        "meta_epoch": "2025-12-25T14:22:23.124864",
        "meta_mean_motion": 14.52219367,
        "meta_eccentricity": 0.0117287,
        "meta_inclination": 98.1925,
        "meta_ra_of_asc_node": 31.5403,
        "meta_arg_of_pericenter": 38.8862,
        "meta_mean_anomaly": 112.9262,
        "meta_ephemeris_type": 0,
        "meta_classification_type": "U",
        "meta_norad_cat_id": 31507,
        "meta_element_set_no": 999,
        "meta_rev_at_epoch": 98207,
        "meta_bstar": 0.00045068,
        "meta_mean_motion_dot": 1.953e-05,
        "meta_mean_motion_ddot": 0,
        "tle_line1": "1 31507U 99025BWW 25359.59887876  .00001953  00000+0  45068-3 0  9996",
        "tle_line2": "2 31507  98.1925  31.5403 0117287  38.8862 112.9262 14.52219367982078"
      },
      "geometry": {
        "type": "Point",
        "coordinates": [
          34.89510836059304,
          -14.760565790951357
        ]
      }
    },
    {
      "type": "Feature",
      "properties": {
        "norad_id": 31508,
        "name": "FENGYUN 1C DEB",
        "group": "fengyun-1c-debris",
        "lat": -15.856819690529239,
        "lon": -72.47848324391501,
        "alt_km": 686.6272307315976,
        "timestamp": "2025-12-26T19:22:39.189579+00:00",
        "meta_object_name": "FENGYUN 1C DEB",
        "meta_object_id": "1999-025BWX",
        "meta_epoch": "2025-12-22T06:07:52.254624",
        "meta_mean_motion": 14.62716626,
        "meta_eccentricity": 0.00341369,
        "meta_inclination": 98.626,
        "meta_ra_of_asc_node": 105.2382,
        "meta_arg_of_pericenter": 295.1567,
        "meta_mean_anomaly": 64.6094,
        "meta_ephemeris_type": 0,
        "meta_classification_type": "U",
        "meta_norad_cat_id": 31508,
        "meta_element_set_no": 999,
        "meta_rev_at_epoch": 97063,
        "meta_bstar": 0.0030278047,
        "meta_mean_motion_dot": 0.00015531,
        "meta_mean_motion_ddot": 0,
        "tle_line1": "1 31508U 99025BWX 25356.25546591  .00015531  00000+0  30278-2 0  9996",
        "tle_line2": "2 31508  98.6260 105.2382 0034136 295.1567  64.6094 14.62716626970638"
      },
      "geometry": {
        "type": "Point",
        "coordinates": [
          -72.47848324391501,
          -15.856819690529239
        ]
      }
    },
    {
      "type": "Feature",
      "properties": {
        "norad_id": 31509,
        "name": "FENGYUN 1C DEB",
        "group": "fengyun-1c-debris",
        "lat": 54.32906290695879,
        "lon": 106.96975438357558,
        "alt_km": 989.6751997378606,
        "timestamp": "2025-12-26T19:22:39.189589+00:00",
        "meta_object_name": "FENGYUN 1C DEB",
        "meta_object_id": "1999-025BWY",
        "meta_epoch": "2025-12-25T19:00:13.467456",
        "meta_mean_motion": 13.94973753,
        "meta_eccentricity": 0.02044038,
        "meta_inclination": 99.0219,
        "meta_ra_of_asc_node": 118.7635,
        "meta_arg_of_pericenter": 183.292,
        "meta_mean_anomaly": 176.6909,
        "meta_ephemeris_type": 0,
        "meta_classification_type": "U",
        "meta_norad_cat_id": 31509,
        "meta_element_set_no": 999,
        "meta_rev_at_epoch": 94144,
        "meta_bstar": 0.0018891456,
        "meta_mean_motion_dot": 2.983e-05,
        "meta_mean_motion_ddot": 0,
        "tle_line1": "1 31509U 99025BWY 25359.79182254  .00002983  00000+0  18891-2 0  9995",
        "tle_line2": "2 31509  99.0219 118.7635 0204403 183.2920 176.6909 13.94973753941440"
      },
      "geometry": {
        "type": "Point",
        "coordinates": [
          106.96975438357558,
          54.32906290695879
        ]
      }
    },
    {
      "type": "Feature",
      "properties": {
        "norad_id": 31510,
        "name": "FENGYUN 1C DEB",
        "group": "fengyun-1c-debris",
        "lat": -66.07713998394689,
        "lon": 159.80887131316786,
        "alt_km": 797.6726994167866,
        "timestamp": "2025-12-26T19:22:39.189599+00:00",
        "meta_object_name": "FENGYUN 1C DEB",
        "meta_object_id": "1999-025BWZ",
        "meta_epoch": "2025-12-20T19:32:19.154112",
        "meta_mean_motion": 14.24579723,
        "meta_eccentricity": 0.0036702,
        "meta_inclination": 98.5531,
        "meta_ra_of_asc_node": 353.8036,
        "meta_arg_of_pericenter": 307.7687,
        "meta_mean_anomaly": 180.91,
        "meta_ephemeris_type": 0,
        "meta_classification_type": "U",
        "meta_norad_cat_id": 31510,
        "meta_element_set_no": 999,
        "meta_rev_at_epoch": 96602,
        "meta_bstar": 0.00036270315,
        "meta_mean_motion_dot": 8.05e-06,
        "meta_mean_motion_ddot": 0,
        "tle_line1": "1 31510U 99025BWZ 25354.81411058  .00000805  00000+0  36270-3 0  9995",
        "tle_line2": "2 31510  98.5531 353.8036 0036702 307.7687 180.9100 14.24579723966023"
      },
      "geometry": {
        "type": "Point",
        "coordinates": [
          159.80887131316786,
          -66.07713998394689
        ]
      }
    },
    {
      "type": "Feature",
      "properties": {
        "norad_id": 31511,
        "name": "FENGYUN 1C DEB",
        "group": "fengyun-1c-debris",
        "lat": 57.51872724636844,
        "lon": 155.4702982957618,
        "alt_km": 839.7083717135129,
        "timestamp": "2025-12-26T19:22:39.189610+00:00",
        "meta_object_name": "FENGYUN 1C DEB",
        "meta_object_id": "1999-025BXA",
        "meta_epoch": "2025-12-24T18:20:10.999680",
        "meta_mean_motion": 14.28150849,
        "meta_eccentricity": 0.01093127,
        "meta_inclination": 99.0669,
        "meta_ra_of_asc_node": 167.876,
        "meta_arg_of_pericenter": 192.3166,
        "meta_mean_anomaly": 167.5338,
        "meta_ephemeris_type": 0,
        "meta_classification_type": "U",
        "meta_norad_cat_id": 31511,
        "meta_element_set_no": 999,
        "meta_rev_at_epoch": 95972,
        "meta_bstar": 0.0013644628,
        "meta_mean_motion_dot": 3.573e-05,
        "meta_mean_motion_ddot": 0,
        "tle_line1": "1 31511U 99025BXA 25358.76401620  .00003573  00000+0  13645-2 0  9993",
        "tle_line2": "2 31511  99.0669 167.8760 0109312 192.3166 167.5338 14.28150849959728"
      },
      "geometry": {
        "type": "Point",
        "coordinates": [
          155.4702982957618,
          57.51872724636844
        ]
      }
    }
  ]
}